[
    {
        "CCSDS_OMM_VERS": "3.0",
        "COMMENT": "GENERATED VIA SPACE-TRACK.ORG API",
        "CREATION_DATE": "2025-04-14T06:36:32",
        "ORIGINATOR": "18 SPCS",
        "OBJECT_NAME": "BEIDOU 3 IGSO-2",
        "OBJECT_ID": "2019-035A",
        "CENTER_NAME": "EARTH",
        "REF_FRAME": "TEME",
        "TIME_SYSTEM": "UTC",
        "MEAN_ELEMENT_THEORY": "SGP4",
        "EPOCH": "2025-04-13T23:35:14.706240",
        "MEAN_MOTION": "1.00291476",
        "ECCENTRICITY": "0.00355390",
        "INCLINATION": "55.1996",
        "RA_OF_ASC_NODE": "162.6307",
        "ARG_OF_PERICENTER": "208.3863",
        "MEAN_ANOMALY": "303.4805",
        "EPHEMERIS_TYPE": "0",
        "CLASSIFICATION_TYPE": "U",
        "NORAD_CAT_ID": "44337",
        "ELEMENT_SET_NO": "999",
        "REV_AT_EPOCH": "2139",
        "BSTAR": "0.00000000000000",
        "MEAN_MOTION_DOT": "-0.00000081",
        "MEAN_MOTION_DDOT": "0.0000000000000",
        "SEMIMAJOR_AXIS": "42159.213",
        "PERIOD": "1435.815",
        "APOAPSIS": "35930.907",
        "PERIAPSIS": "35631.248",
        "OBJECT_TYPE": "PAYLOAD",
        "RCS_SIZE": "LARGE",
        "COUNTRY_CODE": "PRC",
        "LAUNCH_DATE": "2019-06-24",
        "SITE": "XSC",
        "DECAY_DATE": null,
        "FILE": "4701369",
        "GP_ID": "285555350",
        "TLE_LINE0": "0 BEIDOU 3 IGSO-2",
        "TLE_LINE1": "1 44337U 19035A   25103.98280910 -.00000081  00000-0  00000+0 0  9996",
        "TLE_LINE2": "2 44337  55.1996 162.6307 0035539 208.3863 303.4805  1.00291476 21396"
    }
]